[{"OBJECT_NAME":"FENGYUN 3H","OBJECT_ID":"2025-219A","EPOCH":"2026-03-09T21:29:42.222912","MEAN_MOTION":14.19932737,"ECCENTRICITY":0.00012969,"INCLINATION":98.6685,"RA_OF_ASC_NODE":11.64,"ARG_OF_PERICENTER":61.8301,"MEAN_ANOMALY":298.3007,"EPHEMERIS_TYPE":0,"CLASSIFICATION_TYPE":"U","NORAD_CAT_ID":65815,"ELEMENT_SET_NO":999,"REV_AT_EPOCH":2329,"BSTAR":7.8784575e-5,"MEAN_MOTION_DOT":1.24e-6,"MEAN_MOTION_DDOT":0},{"OBJECT_NAME":"CZ-6A DEB","OBJECT_ID":"2024-140CQ","EPOCH":"2026-03-09T14:42:52.923456","MEAN_MOTION":14.17620302,"ECCENTRICITY":0.0058861,"INCLINATION":89.0068,"RA_OF_ASC_NODE":287.0176,"ARG_OF_PERICENTER":164.4048,"MEAN_ANOMALY":195.8972,"EPHEMERIS_TYPE":0,"CLASSIFICATION_TYPE":"U","NORAD_CAT_ID":60687,"ELEMENT_SET_NO":999,"REV_AT_EPOCH":8175,"BSTAR":0.00055403,"MEAN_MOTION_DOT":1.159e-5,"MEAN_MOTION_DDOT":0}]
